0 IUS R/B(2)
1 21641U 91054D   13279.96980979  .00000061  00000-0  10000-3 0  1535
2 21641 015.7506 019.9059 0034888 219.6851 140.0670 01.00212051 79440
0 IUS R/B(2)
1 21641U 91054D   13285.95678154  .00000042  00000-0  10000-3 0  1540
2 21641 015.7566 019.8359 0034826 219.8017 139.9422 01.00214148 79504
0 IUS R/B(2)
1 21641U 91054D   13290.94579318  .00000034  00000-0  10000-3 0  1559
2 21641 015.7615 019.7776 0034838 219.8853 139.8381 01.00215834 79553
0 IUS R/B(2)
1 21641U 91054D   13293.93920167  .00000035  00000-0  10000-3 0  1565
2 21641 015.7644 019.7429 0034776 219.9520 139.7735 01.00216814 79587
